CTC1_L_00295001-01
1 37920U 25997NC  26070.40834491  .00000000  00000+0  00000-0 0  9990
2 37920 100.0000   0.0000 0000000   0.0000   0.0000 14.79785908    13
CTC1_L_00295001-02
1 37921U 25978XF  26070.40834491  .00000000  00000+0  00000-0 0  9990
2 37921 100.0000   0.0000 0000000   0.0000  90.0000 14.79785908    13
CTC1_L_00295001-03
1 37922U 22885YI  26070.40834491  .00000000  00000+0  00000-0 0  9995
2 37922 100.0000   0.0000 0000000   0.0000 180.0000 14.79785908    14
CTC1_L_00295001-04
1 37923U 25112LM  26070.40834491  .00000000  00000+0  00000-0 0  9992
2 37923 100.0000   0.0000 0000000   0.0000 270.0000 14.79785908    15
CTC1_L_00295002-01
1 37924U 22493OD  26070.40834491  .00000000  00000+0  00000-0 0  9992
2 37924 100.0000  12.0000 0000000   0.0000  12.0000 14.79785908    13
CTC1_L_00295002-02
1 37925U 22882JF  26070.40834491  .00000000  00000+0  00000-0 0  9995
2 37925 100.0000  12.0000 0000000   0.0000 102.0000 14.79785908    14
CTC1_L_00295002-03
1 37926U 24758JW  26070.40834491  .00000000  00000+0  00000-0 0  9990
2 37926 100.0000  12.0000 0000000   0.0000 192.0000 14.79785908    14
CTC1_L_00295002-04
1 37927U 25214AC  26070.40834491  .00000000  00000+0  00000-0 0  9999
2 37927 100.0000  12.0000 0000000   0.0000 282.0000 14.79785908    15
CTC1_L_00295003-01
1 37928U 24439XM  26070.40834491  .00000000  00000+0  00000-0 0  9998
2 37928 100.0000  24.0000 0000000   0.0000  24.0000 14.79785908    13
CTC1_L_00295003-02
1 37929U 22108JS  26070.40834491  .00000000  00000+0  00000-0 0  9990
2 37929 100.0000  24.0000 0000000   0.0000 114.0000 14.79785908    14
CTC1_L_00295003-03
1 37930U 26407WU  26070.40834491  .00000000  00000+0  00000-0 0  9998
2 37930 100.0000  24.0000 0000000   0.0000 204.0000 14.79785908    16
CTC1_L_00295003-04
1 37931U 23489TJ  26070.40834491  .00000000  00000+0  00000-0 0  9996
2 37931 100.0000  24.0000 0000000   0.0000 294.0000 14.79785908    16
CTC1_L_00295004-01
1 37932U 25875NB  26070.40834491  .00000000  00000+0  00000-0 0  9998
2 37932 100.0000  36.0000 0000000   0.0000  36.0000 14.79785908    14
CTC1_L_00295004-02
1 37933U 25120FU  26070.40834491  .00000000  00000+0  00000-0 0  9992
2 37933 100.0000  36.0000 0000000   0.0000 126.0000 14.79785908    15
CTC1_L_00295004-03
1 37934U 24819XC  26070.40834491  .00000000  00000+0  00000-0 0  9997
2 37934 100.0000  36.0000 0000000   0.0000 216.0000 14.79785908    16
CTC1_L_00295004-04
1 37935U 26503SB  26070.40834491  .00000000  00000+0  00000-0 0  9990
2 37935 100.0000  36.0000 0000000   0.0000 306.0000 14.79785908    17
CTC1_L_00295005-01
1 37936U 23650RS  26070.40834491  .00000000  00000+0  00000-0 0  9991
2 37936 100.0000  48.0000 0000000   0.0000  48.0000 14.79785908    14
CTC1_L_00295005-02
1 37937U 25227WV  26070.40834491  .00000000  00000+0  00000-0 0  9994
2 37937 100.0000  48.0000 0000000   0.0000 138.0000 14.79785908    15
CTC1_L_00295005-03
1 37938U 25862EP  26070.40834491  .00000000  00000+0  00000-0 0  9990
2 37938 100.0000  48.0000 0000000   0.0000 228.0000 14.79785908    16
CTC1_L_00295005-04
1 37939U 26036MY  26070.40834491  .00000000  00000+0  00000-0 0  9995
2 37939 100.0000  48.0000 0000000   0.0000 318.0000 14.79785908    17
CTC1_L_00295006-01
1 37940U 22437OP  26070.40834491  .00000000  00000+0  00000-0 0  9998
2 37940 100.0000  60.0000 0000000   0.0000  60.0000 14.79785908    17
CTC1_L_00295006-02
1 37941U 23180KK  26070.40834491  .00000000  00000+0  00000-0 0  9995
2 37941 100.0000  60.0000 0000000   0.0000 150.0000 14.79785908    18
CTC1_L_00295006-03
1 37942U 25436YW  26070.40834491  .00000000  00000+0  00000-0 0  9992
2 37942 100.0000  60.0000 0000000   0.0000 240.0000 14.79785908    19
CTC1_L_00295006-04
1 37943U 25503QN  26070.40834491  .00000000  00000+0  00000-0 0  9998
2 37943 100.0000  60.0000 0000000   0.0000 330.0000 14.79785908    10
CTC1_L_00295007-01
1 37944U 23097HK  26070.40834491  .00000000  00000+0  00000-0 0  9995
2 37944 100.0000  72.0000 0000000   0.0000  72.0000 14.79785908    17
CTC1_L_00295007-02
1 37945U 24013AQ  26070.40834491  .00000000  00000+0  00000-0 0  9995
2 37945 100.0000  72.0000 0000000   0.0000 162.0000 14.79785908    18
CTC1_L_00295007-03
1 37946U 25049PQ  26070.40834491  .00000000  00000+0  00000-0 0  9996
2 37946 100.0000  72.0000 0000000   0.0000 252.0000 14.79785908    19
CTC1_L_00295007-04
1 37947U 25066NA  26070.40834491  .00000000  00000+0  00000-0 0  9996
2 37947 100.0000  72.0000 0000000   0.0000 342.0000 14.79785908    10
CTC1_L_00295008-01
1 37948U 25651LI  26070.40834491  .00000000  00000+0  00000-0 0  9997
2 37948 100.0000  84.0000 0000000   0.0000  84.0000 14.79785908    17
CTC1_L_00295008-02
1 37949U 24653FI  26070.40834491  .00000000  00000+0  00000-0 0  9999
2 37949 100.0000  84.0000 0000000   0.0000 174.0000 14.79785908    18
CTC1_L_00295008-03
1 37950U 22768HU  26070.40834491  .00000000  00000+0  00000-0 0  9996
2 37950 100.0000  84.0000 0000000   0.0000 264.0000 14.79785908    10
CTC1_L_00295008-04
1 37951U 24598AO  26070.40834491  .00000000  00000+0  00000-0 0  9990
2 37951 100.0000  84.0000 0000000   0.0000 354.0000 14.79785908    11
CTC1_L_00295009-01
1 37952U 24532EI  26070.40834491  .00000000  00000+0  00000-0 0  9999
2 37952 100.0000  96.0000 0000000   0.0000  96.0000 14.79785908    18
CTC1_L_00295009-02
1 37953U 26858YA  26070.40834491  .00000000  00000+0  00000-0 0  9993
2 37953 100.0000  96.0000 0000000   0.0000 186.0000 14.79785908    19
CTC1_L_00295009-03
1 37954U 24312ZU  26070.40834491  .00000000  00000+0  00000-0 0  9997
2 37954 100.0000  96.0000 0000000   0.0000 276.0000 14.79785908    10
CTC1_L_00295009-04
1 37955U 23853XI  26070.40834491  .00000000  00000+0  00000-0 0  9997
2 37955 100.0000  96.0000 0000000   0.0000   6.0000 14.79785908    12
CTC1_L_00295010-01
1 37956U 22162IF  26070.40834491  .00000000  00000+0  00000-0 0  9990
2 37956 100.0000 108.0000 0000000   0.0000 108.0000 14.79785908    10
CTC1_L_00295010-02
1 37957U 26907NX  26070.40834491  .00000000  00000+0  00000-0 0  9992
2 37957 100.0000 108.0000 0000000   0.0000 198.0000 14.79785908    10
CTC1_L_00295010-03
1 37958U 26026CH  26070.40834491  .00000000  00000+0  00000-0 0  9995
2 37958 100.0000 108.0000 0000000   0.0000 288.0000 14.79785908    11
CTC1_L_00295010-04
1 37959U 24378QK  26070.40834491  .00000000  00000+0  00000-0 0  9994
2 37959 100.0000 108.0000 0000000   0.0000  18.0000 14.79785908    13
CTC1_L_00295011-01
1 37960U 24318ZT  26070.40834491  .00000000  00000+0  00000-0 0  9990
2 37960 100.0000 120.0000 0000000   0.0000 120.0000 14.79785908    13
CTC1_L_00295011-02
1 37961U 26789CF  26070.40834491  .00000000  00000+0  00000-0 0  9995
2 37961 100.0000 120.0000 0000000   0.0000 210.0000 14.79785908    14
CTC1_L_00295011-03
1 37962U 22716UC  26070.40834491  .00000000  00000+0  00000-0 0  9992
2 37962 100.0000 120.0000 0000000   0.0000 300.0000 14.79785908    15
CTC1_L_00295011-04
1 37963U 22359ZX  26070.40834491  .00000000  00000+0  00000-0 0  9996
2 37963 100.0000 120.0000 0000000   0.0000  30.0000 14.79785908    16
CTC1_L_00295012-01
1 37964U 25600MG  26070.40834491  .00000000  00000+0  00000-0 0  9999
2 37964 100.0000 132.0000 0000000   0.0000 132.0000 14.79785908    13
CTC1_L_00295012-02
1 37965U 26849UF  26070.40834491  .00000000  00000+0  00000-0 0  9996
2 37965 100.0000 132.0000 0000000   0.0000 222.0000 14.79785908    14
CTC1_L_00295012-03
1 37966U 23017BN  26070.40834491  .00000000  00000+0  00000-0 0  9991
2 37966 100.0000 132.0000 0000000   0.0000 312.0000 14.79785908    15
CTC1_L_00295012-04
1 37967U 26471BY  26070.40834491  .00000000  00000+0  00000-0 0  9999
2 37967 100.0000 132.0000 0000000   0.0000  42.0000 14.79785908    16
CTC1_L_00295013-01
1 37968U 23431SW  26070.40834491  .00000000  00000+0  00000-0 0  9993
2 37968 100.0000 144.0000 0000000   0.0000 144.0000 14.79785908    13
CTC1_L_00295013-02
1 37969U 24006GD  26070.40834491  .00000000  00000+0  00000-0 0  9993
2 37969 100.0000 144.0000 0000000   0.0000 234.0000 14.79785908    14
CTC1_L_00295013-03
1 37970U 23136NO  26070.40834491  .00000000  00000+0  00000-0 0  9998
2 37970 100.0000 144.0000 0000000   0.0000 324.0000 14.79785908    16
CTC1_L_00295013-04
1 37971U 24111XA  26070.40834491  .00000000  00000+0  00000-0 0  9993
2 37971 100.0000 144.0000 0000000   0.0000  54.0000 14.79785908    17
CTC1_L_00295014-01
1 37972U 26666NU  26070.40834491  .00000000  00000+0  00000-0 0  9991
2 37972 100.0000 156.0000 0000000   0.0000 156.0000 14.79785908    14
CTC1_L_00295014-02
1 37973U 23482CW  26070.40834491  .00000000  00000+0  00000-0 0  9995
2 37973 100.0000 156.0000 0000000   0.0000 246.0000 14.79785908    15
CTC1_L_00295014-03
1 37974U 23928AG  26070.40834491  .00000000  00000+0  00000-0 0  9991
2 37974 100.0000 156.0000 0000000   0.0000 336.0000 14.79785908    16
CTC1_L_00295014-04
1 37975U 23938DF  26070.40834491  .00000000  00000+0  00000-0 0  9993
2 37975 100.0000 156.0000 0000000   0.0000  66.0000 14.79785908    17
CTC1_L_00295015-01
1 37976U 22498AT  26070.40834491  .00000000  00000+0  00000-0 0  9994
2 37976 100.0000 168.0000 0000000   0.0000 168.0000 14.79785908    14
CTC1_L_00295015-02
1 37977U 24677SS  26070.40834491  .00000000  00000+0  00000-0 0  9996
2 37977 100.0000 168.0000 0000000   0.0000 258.0000 14.79785908    15
CTC1_L_00295015-03
1 37978U 25698FB  26070.40834491  .00000000  00000+0  00000-0 0  9991
2 37978 100.0000 168.0000 0000000   0.0000 348.0000 14.79785908    16
CTC1_L_00295015-04
1 37979U 23033IQ  26070.40834491  .00000000  00000+0  00000-0 0  9993
2 37979 100.0000 168.0000 0000000   0.0000  78.0000 14.79785908    17
CTC1_L_00295016-01
1 37980U 26004CN  26070.40834491  .00000000  00000+0  00000-0 0  9996
2 37980 100.0000 180.0000 0000000   0.0000 180.0000 14.79785908    17
CTC1_L_00295016-02
1 37981U 25459FF  26070.40834491  .00000000  00000+0  00000-0 0  9990
2 37981 100.0000 180.0000 0000000   0.0000 270.0000 14.79785908    18
